NORAD_CAT_ID,OBJECT_NAME,OBJECT_TYPE,EPOCH,MEAN_MOTION,ECCENTRICITY,INCLINATION,RA_OF_ASC_NODE,ARG_OF_PERICENTER,MEAN_ANOMALY,BSTAR,MEAN_MOTION_DOT,MEAN_MOTION_DDOT,TLE_LINE0,TLE_LINE1,TLE_LINE2,SEMIMAJOR_AXIS,PERIOD,APOGEE,PERIGEE,DECAYED
48148,STARLINK-2491,PAYLOAD,2021-10-19 00:04:01,15.06415272,0.00016230000000000001,53.0564,166.3634,68.6162,291.5,0.00020337,2.75e-05,0.0,0 STARLINK-2491,1 48148U 21027BJ  21292.00279485  .00002750  00000-0  20337-3 0  9990,2 48148  53.0564 166.3634 0001623  68.6162 291.5000 15.06415272 30452,6925.302,95.59100000000001,548.2909999999998,546.043,0.0
48148,STARLINK-2491,PAYLOAD,2021-10-19 03:15:06,15.06416672,0.0001628,53.0564,165.7677,69.0059,291.1104,0.00021499,2.924e-05,0.0,0 STARLINK-2491,1 48148U 21027BJ  21292.13548679  .00002924  00000-0  21499-3 0  9991,2 48148  53.0564 165.7677 0001628  69.0059 291.1104 15.06416672 30868,6925.297,95.59100000000001,548.29,546.035,0.0
48148,STARLINK-2491,PAYLOAD,2021-10-19 17:34:57,15.06409211,0.0001686,53.0557,163.0874,69.9534,290.1636,3.8472e-05,2.92e-06,0.0,0 STARLINK-2491,1 48148U 21027BJ  21292.73260914  .00000292  00000-0  38472-4 0  9996,2 48148  53.0557 163.0874 0001686  69.9534 290.1636 15.06409211 30568,6925.32,95.59200000000001,548.3530000000002,546.018,0.0
48148,STARLINK-2491,PAYLOAD,2021-10-19 20:46:02,15.06408463,0.0001674,53.0557,162.4917,69.9632,290.1537,2.6346999999999997e-05,1.11e-06,0.0,0 STARLINK-2491,1 48148U 21027BJ  21292.86530250  .00000111  00000-0  26347-4 0  9991,2 48148  53.0557 162.4917 0001674  69.9632 290.1537 15.06408463 30978,6925.323,95.59200000000001,548.347,546.028,0.0
48148,STARLINK-2491,PAYLOAD,2021-10-20 01:32:39,15.06394904,0.0001694,53.0555,161.5983,68.5927,291.5243,-0.00019574,-3.196e-05,0.0,0 STARLINK-2491,1 48148U 21027BJ  21293.06434928 -.00003196  00000-0 -19574-3 0  9990,2 48148  53.0555 161.5983 0001694  68.5927 291.5243 15.06394904 30617,6925.364000000001,95.59200000000001,548.4019999999998,546.056,0.0
48148,STARLINK-2491,PAYLOAD,2021-10-20 07:54:49,15.06393836,0.00016969999999999998,53.0555,160.407,67.917,292.1999,-0.00020049,-3.266e-05,0.0,0 STARLINK-2491,1 48148U 21027BJ  21293.32973699 -.00003266  00000-0 -20049-3 0  9999,2 48148  53.0555 160.4070 0001697  67.9170 292.1999 15.06393836 31044,6925.3669999999975,95.59299999999999,548.408,546.057,0.0
48148,STARLINK-2491,PAYLOAD,2021-10-20 20:39:08,15.06395402,0.0001729,53.0566,158.0241,71.9419,288.1758,-0.00011264,-1.959e-05,0.0,0 STARLINK-2491,1 48148U 21027BJ  21293.86051880 -.00001959  00000-0 -11264-3 0  9993,2 48148  53.0566 158.0241 0001729  71.9419 288.1758 15.06395402 31124,6925.363,95.59200000000001,548.425,546.03,0.0
48148,STARLINK-2491,PAYLOAD,2021-10-21 07:47:55,15.06394654,0.0001706,53.0565,155.9394,72.8798,287.2378,-9.925e-05,-1.759e-05,0.0,0 STARLINK-2491,1 48148U 21027BJ  21294.32494720 -.00001759  00000-0 -99250-4 0  9999,2 48148  53.0565 155.9394 0001706  72.8798 287.2378 15.06394654 30803,6925.365,95.59200000000001,548.411,546.048,0.0
48148,STARLINK-2491,PAYLOAD,2021-10-21 22:07:46,15.06392146,0.0001891,53.0565,153.259,77.3641,282.7559,-3.4046e-05,-7.89e-06,0.0,0 STARLINK-2491,1 48148U 21027BJ  21294.92207158 -.00000789  00000-0 -34046-4 0  9996,2 48148  53.0565 153.2590 0001891  77.3641 282.7559 15.06392146 31282,6925.373000000001,95.59299999999999,548.547,545.928,0.0
48148,STARLINK-2491,PAYLOAD,2021-10-21 23:43:19,15.06391639,0.00019969999999999998,53.0565,152.9612,81.639,278.4825,-1.5416e-05,-5.11e-06,0.0,0 STARLINK-2491,1 48148U 21027BJ  21294.98841861 -.00000511  00000-0 -15416-4 0  9990,2 48148  53.0565 152.9612 0001997  81.6390 278.4825 15.06391639 31294,6925.374,95.59299999999999,548.622,545.856,0.0
48148,STARLINK-2491,PAYLOAD,2021-10-22 17:14:15,15.06386701,0.0001829,53.0565,149.6851,73.2136,286.9053,9.9326e-05,1.198e-05,0.0,0 STARLINK-2491,1 48148U 21027BJ  21295.71824011  .00001198  00000-0  99326-4 0  9992,2 48148  53.0565 149.6851 0001829  73.2136 286.9053 15.06386701 31012,6925.389,95.59299999999999,548.521,545.988,0.0
48148,STARLINK-2491,PAYLOAD,2021-10-23 02:47:30,15.06389102,0.0001854,53.0565,147.8982,73.8003,286.319,0.00010189,1.236e-05,0.0,0 STARLINK-2491,1 48148U 21027BJ  21296.11632224  .00001236  00000-0  10189-3 0  9992,2 48148  53.0565 147.8982 0001854  73.8003 286.3190 15.06389102 31467,6925.382,95.59299999999999,548.531,545.9630000000002,0.0
48148,STARLINK-2491,PAYLOAD,2021-10-23 18:42:54,15.06392924,0.00018730000000000005,53.0565,144.92,75.1312,284.9884,9.942299999999999e-05,1.199e-05,0.0,0 STARLINK-2491,1 48148U 21027BJ  21296.77979193  .00001199  00000-0  99423-4 0  9990,2 48148  53.0565 144.9200 0001873  75.1312 284.9884 15.06392924 31175,6925.37,95.59299999999999,548.5319999999998,545.938,0.0
48148,STARLINK-2491,PAYLOAD,2021-10-24 07:27:12,15.06395732,0.0001884,53.0565,142.5373,75.6402,284.4796,0.00010736,1.318e-05,0.0,0 STARLINK-2491,1 48148U 21027BJ  21297.31056627  .00001318  00000-0  10736-3 0  9991,2 48148  53.0565 142.5373 0001884  75.6402 284.4796 15.06395732 31646,6925.361999999999,95.59200000000001,548.531,545.922,0.0
48148,STARLINK-2491,PAYLOAD,2021-10-24 20:11:31,15.06398768,0.0001902,53.0564,140.1546,76.862,283.2581,9.8599e-05,1.187e-05,0.0,0 STARLINK-2491,1 48148U 21027BJ  21297.84134021  .00001187  00000-0  98599-4 0  9992,2 48148  53.0564 140.1546 0001902  76.8620 283.2581 15.06398768 31727,6925.352,95.59200000000001,548.535,545.9,0.0
48148,STARLINK-2491,PAYLOAD,2021-10-25 00:58:08,15.06399948,0.00019099999999999998,53.0564,139.2611,76.9671,283.1531,0.00010496,1.282e-05,0.0,0 STARLINK-2491,1 48148U 21027BJ  21298.04037991  .00001282  00000-0  10496-3 0  9998,2 48148  53.0564 139.2611 0001910  76.9671 283.1531 15.06399948 31360,6925.349,95.59200000000001,548.536,545.891,0.0
48148,STARLINK-2491,PAYLOAD,2021-10-26 05:37:50,15.06406715,0.0001932,53.0564,133.9,78.421,281.6996,0.00013246,1.692e-05,0.0,0 STARLINK-2491,1 48148U 21027BJ  21299.23461765  .00001692  00000-0  13246-3 0  9991,2 48148  53.0564 133.9000 0001932  78.4210 281.6996 15.06406715 31935,6925.328,95.59200000000001,548.531,545.855,0.0
48148,STARLINK-2491,PAYLOAD,2021-10-27 05:30:55,15.06412647,0.0001961,53.0563,129.4324,80.3537,279.7673,0.00015028,1.958e-05,0.0,0 STARLINK-2491,1 48148U 21027BJ  21300.22981128  .00001958  00000-0  15028-3 0  9998,2 48148  53.0563 129.4324 0001961  80.3537 279.7673 15.06412647 32087,6925.31,95.59100000000001,548.533,545.817,0.0
48148,STARLINK-2491,PAYLOAD,2021-10-27 18:15:15,15.06399438,0.0001906,53.0562,127.0497,83.9001,276.2205,-7.731000000000001e-06,-3.97e-06,0.0,0 STARLINK-2491,1 48148U 21027BJ  21300.76059483 -.00000397  00000-0 -77310-5 0  9999,2 48148  53.0562 127.0497 0001906  83.9001 276.2205 15.06399438 31775,6925.35,95.59200000000001,548.535,545.895,0.0
48148,STARLINK-2491,PAYLOAD,2021-10-28 05:24:01,15.06399051,0.0001909,53.0564,124.9649,81.1849,278.9356,1.0041000000000001e-05,-1.32e-06,0.0,0 STARLINK-2491,1 48148U 21027BJ  21301.22502183 -.00000132  00000-0  10041-4 0  9994,2 48148  53.0564 124.9649 0001909  81.1849 278.9356 15.06399051 32234,6925.351,95.59200000000001,548.539,545.894,0.0
48148,STARLINK-2491,PAYLOAD,2021-10-28 18:08:20,15.06401512,0.00018790000000000001,53.0564,122.5822,83.2819,276.8384,-1.5793e-05,-5.17e-06,0.0,0 STARLINK-2491,1 48148U 21027BJ  21301.75579452 -.00000517  00000-0 -15793-4 0  9992,2 48148  53.0564 122.5822 0001879  83.2819 276.8384 15.06401512 32310,6925.344,95.59200000000001,548.51,545.908,0.0
48148,STARLINK-2491,PAYLOAD,2021-10-29 00:30:29,15.06402288,0.000188,53.0564,121.3908,83.2411,276.8792,-1.4054000000000001e-05,-4.91e-06,0.0,0 STARLINK-2491,1 48148U 21027BJ  21302.02118055 -.00000491  00000-0 -14054-4 0  9991,2 48148  53.0564 121.3908 0001880  83.2411 276.8792 15.06402288 31966,6925.342,95.59200000000001,548.509,545.905,0.0
48148,STARLINK-2491,PAYLOAD,2021-10-29 11:39:16,15.06403884,0.00018530000000000009,53.0565,119.3061,83.54,276.58,7.2901e-06,-1.73e-06,0.0,0 STARLINK-2491,1 48148U 21027BJ  21302.48560677 -.00000173  00000-0  72901-5 0  9994,2 48148  53.0565 119.3061 0001853  83.5400 276.5800 15.06403884 32427,6925.3369999999995,95.59200000000001,548.485,545.918,0.0
48148,STARLINK-2491,PAYLOAD,2021-10-29 16:25:53,15.06401846,0.00018449999999999999,53.0565,118.4123,84.0771,276.0428,8.1591e-05,9.34e-06,0.0,0 STARLINK-2491,1 48148U 21027BJ  21302.68464667  .00000934  00000-0  81591-4 0  9996,2 48148  53.0565 118.4123 0001845  84.0771 276.0428 15.06401846 32454,6925.343000000003,95.59200000000001,548.486,545.93,0.0
48148,STARLINK-2491,PAYLOAD,2021-10-30 05:10:12,15.064014499999999,0.0001857,53.0566,116.0298,83.9455,276.1746,0.00013165,1.6800000000000002e-05,0.0,0 STARLINK-2491,1 48148U 21027BJ  21303.21542053  .00001680  00000-0  13165-3 0  9992,2 48148  53.0566 116.0298 0001857  83.9455 276.1746 15.06401450 32143,6925.344,95.59200000000001,548.495,545.923,0.0
48148,STARLINK-2491,PAYLOAD,2021-10-31 05:03:17,15.06409047,0.0001851,53.0569,111.5622,84.7641,275.3559,0.00014333,1.854e-05,0.0,0 STARLINK-2491,1 48148U 21027BJ  21304.21061489  .00001854  00000-0  14333-3 0  9993,2 48148  53.0569 111.5622 0001851  84.7641 275.3559 15.06409047 32689,6925.321,95.59200000000001,548.4680000000002,545.904,0.0
48148,STARLINK-2491,PAYLOAD,2021-10-31 17:47:37,15.06395904,0.00019169999999999997,53.0574,109.1804,84.7786,275.3422,1.7075e-06,-2.56e-06,0.0,0 STARLINK-2491,1 48148U 21027BJ  21304.74140053 -.00000256  00000-0  17075-5 0  9990,2 48148  53.0574 109.1804 0001917  84.7786 275.3422 15.06395904 32374,6925.361,95.59200000000001,548.554,545.899,0.0
48148,STARLINK-2491,PAYLOAD,2021-11-01 12:54:04,15.06401678,0.0001794,53.0572,105.6057,85.9737,274.1457,1.9914e-05,1.5e-07,0.0,0 STARLINK-2491,1 48148U 21027BJ  21305.53755717  .00000015  00000-0  19914-4 0  9992,2 48148  53.0572 105.6057 0001794  85.9737 274.1457 15.06401678 32882,6925.343000000003,95.59200000000001,548.451,545.966,0.0
